STARLINK-11135 [DTC]    
1 60048U 24112L   25051.53277361  .00000914  00000+0  12399-4 0  9996
2 60048  53.1590 349.8348 0001150  94.1887 265.9262 15.69720190 41362
STARLINK-11151 [DTC]    
1 60049U 24112M   25051.22424336 -.00005076  00000+0 -37021-4 0  9994
2 60049  53.1584 351.4466 0001623 127.0315 233.0852 15.69732086 40911
STARLINK-11137 [DTC]    
1 60050U 24112N   25051.53771814 -.00004403  00000+0 -31537-4 0  9995
2 60050  53.1593 349.8472 0001278  92.8001 267.3163 15.69680309 41385
STARLINK-31811          
1 60051U 24112P   25051.41449636 -.00002428  00000+0 -69916-4 0  9994
2 60051  53.1606  53.9689 0001289  85.7589 274.3559 15.30185063 40491
STARLINK-31775          
1 60052U 24112Q   25051.40500296  .00000874  00000+0  41626-4 0  9993
2 60052  53.1596  53.9135 0001317  56.4557 303.6569 15.30192466 40063
STARLINK-31793          
1 60053U 24112R   25051.41132957 -.00000627  00000+0 -90431-5 0  9997
2 60053  53.1612  53.9542 0001450  87.2429 272.8738 15.30190519 40425
STARLINK-31735          
1 60054U 24112S   25051.39866792 -.00000963  00000+0 -20403-4 0  9990
2 60054  53.1605  53.8754 0001540  69.7980 290.3186 15.30179921 40324
STARLINK-31788          
1 60055U 24112T   25051.26486454  .00000988  00000+0  45477-4 0  9993
2 60055  53.1604  54.4587 0001026  98.8751 261.2365 15.30193738 40040
STARLINK-31825          
1 60056U 24112U   25051.40182614 -.00000022  00000+0  11404-4 0  9994
2 60056  53.1608  53.8959 0001708  95.7562 264.3633 15.30202225 40060
STARLINK-31437          
1 60057U 24112V   25051.27753646  .00000097  00000+0  15391-4 0  9999
2 60057  53.1613  54.5445 0001160  74.8703 285.2426 15.30177349 40477
STARLINK-11181 [DTC]    
1 60059U 24113A   25051.89156085  .00003789  00000+0  36075-4 0  9997
2 60059  53.1587 273.4728 0001063 125.2198 234.8919 15.69740912 40017
STARLINK-11176 [DTC]    
1 60060U 24113B   25050.99531632 -.00000382  00000+0  17018-5 0  9998
2 60060  53.1578 277.8352 0000879  90.0577 270.0542 15.69705383 39457
STARLINK-11167 [DTC]    
1 60061U 24113C   25051.88177589 -.00000570  00000+0  14818-6 0  9990
2 60061  53.1590 273.4091 0000950 101.0359 259.0766 15.69714028 39917
STARLINK-11166 [DTC]    
1 60062U 24113D   25051.87687060  .00001197  00000+0  14739-4 0  9995
2 60062  53.1587 273.3743 0001071 114.3694 245.7436 15.69705241 39891
STARLINK-11165 [DTC]    
1 60063U 24113E   25051.87196624  .00004229  00000+0  39737-4 0  9991
2 60063  53.1575 273.3421 0000909  69.2271 290.8844 15.69712604 39794
STARLINK-11169 [DTC]    
1 60064U 24113F   25051.61238360  .00019899  00000+0  16858-3 0  9995
2 60064  53.1568 274.5659 0000873 123.0936 237.0166 15.69728506 39552
STARLINK-11102 [DTC]    
1 60065U 24113G   25051.03447479 -.00002902  00000+0 -19121-4 0  9991
2 60065  53.1584 277.3578 0001088  76.0745 284.0394 15.69687794 39464
STARLINK-11141 [DTC]    
1 60066U 24113H   25051.34791115 -.00001758  00000+0 -96603-5 0  9994
2 60066  53.1591 275.7580 0001057  66.1474 293.9655 15.69694831 39518
STARLINK-11153 [DTC]    
1 60067U 24113J   25051.34310100 -.00000336  00000+0  20834-5 0  9999
2 60067  53.1585 276.4580 0001119  98.1492 261.9653 15.69700603 39501
STARLINK-11170 [DTC]    
1 60068U 24113K   25051.33819826 -.00001882  00000+0 -10684-4 0  9997
2 60068  53.1587 276.4268 0001108 108.6921 251.4217 15.69698900 39505
STARLINK-11171 [DTC]    
1 60069U 24113L   25051.90629622  .00000818  00000+0  11601-4 0  9990
2 60069  53.1577 273.5667 0000734  89.1215 270.9887 15.69720369 39907
STARLINK-11186 [DTC]    
1 60070U 24113M   25051.32837554 -.00000766  00000+0 -14652-5 0  9997
2 60070  53.1574 276.3585 0001040  82.5639 277.5497 15.69710545 39910
STARLINK-11184 [DTC]    
1 60071U 24113N   25051.32347409  .00009065  00000+0  79587-4 0  9999
2 60071  53.1561 276.3628 0000749 107.5898 252.5202 15.69713395 39503
STARLINK-32032          
1 60077U 24113U   25051.92252444  .00006120  00000+0  21860-3 0  9994
2 60077  53.1600 332.1100 0001087 112.7863 247.3252 15.30199370 39185
STARLINK-31441          
1 60091U 24117A   25051.31101018 -.00020245  00000+0 -67122-3 0  9994
2 60091  53.1622  13.1611 0001185 111.8950 248.2177 15.30297737 38343
STARLINK-32044          
1 60092U 24117B   25051.29099582 -.00000780  00000+0 -14224-4 0  9992
2 60092  53.1620  13.0324 0001229  99.0264 261.0876 15.30184391 38346
STARLINK-31239          
1 60093U 24117C   25051.27842943 -.00034209  00000+0 -11432-2 0  9997
2 60093  53.1630  13.6679 0000513  64.0234 296.0820 15.30340356 38332
STARLINK-32007          
1 60094U 24117D   25051.59129828  .00005750  00000+0  20619-3 0  9998
2 60094  53.1611  12.0652 0001003  87.3151 272.7964 15.30188888 38382
STARLINK-32028          
1 60095U 24117E   25051.58181483 -.00002973  00000+0 -88380-4 0  9999
2 60095  53.1624  12.0084 0001107  87.0504 273.0623 15.30171775 38350
STARLINK-32016          
1 60096U 24117F   25051.60079958  .00000435  00000+0  26833-4 0  9990
2 60096  53.1618  12.1270 0001281  94.4641 265.6506 15.30184633 38386
STARLINK-32003          
1 60097U 24117G   25051.30682857 -.00001262  00000+0 -30505-4 0  9998
2 60097  53.1627  13.1334 0001115 105.9353 254.1770 15.30182288 38349
STARLINK-32026          
1 60098U 24117H   25051.57757443  .00000259  00000+0  20872-4 0  9991
2 60098  53.1621  11.9807 0001019  93.5076 266.6041 15.30193839 38389
STARLINK-31732          
1 60099U 24117J   25051.61017850  .00001161  00000+0  51345-4 0  9990
2 60099  53.1633  11.4682 0001408 109.4512 250.6641 15.30189123 38394
STARLINK-31996          
1 60100U 24117K   25051.16668961 -.00001306  00000+0 -31996-4 0  9991
2 60100  53.1622  13.6798 0001114  95.5743 264.5385 15.30188184 38320
STARLINK-31999          
1 60101U 24117L   25051.21207978 -.00000341  00000+0  59775-6 0  9999
2 60101  53.1614  13.9659 0001227  98.8089 261.3051 15.30174720 38275
STARLINK-31954          
1 60102U 24117M   25051.59762704  .00000640  00000+0  33725-4 0  9990
2 60102  53.1622  12.1044 0001035 100.2101 259.9017 15.30191633 38383
STARLINK-32013          
1 60103U 24117N   25051.59446015  .00000704  00000+0  35884-4 0  9994
2 60103  53.1619  12.0840 0001163  97.6625 262.4507 15.30190463 38388
STARLINK-32009          
1 60104U 24117P   25051.60711640 -.00000137  00000+0  74857-5 0  9991
2 60104  53.1639  12.1357 0001309 108.5972 251.5171 15.30198331 38382
STARLINK-32018          
1 60105U 24117Q   25051.58496930 -.00000505  00000+0 -49346-5 0  9996
2 60105  53.1610  12.0253 0000899  74.7966 285.3134 15.30186123 38386
STARLINK-32045          
1 60106U 24117R   25051.58813990 -.00000836  00000+0 -16106-4 0  9990
2 60106  53.1620  12.0459 0001071 101.8866 258.2255 15.30179808 38385
STARLINK-32035          
1 60107U 24117S   25051.31316335 -.00000704  00000+0 -11681-4 0  9990
2 60107  53.1624  13.1709 0000917  89.2401 270.8705 15.30173827 38343
STARLINK-32042          
1 60108U 24117T   25051.30366604  .00000398  00000+0  25605-4 0  9992
2 60108  53.1626  13.1099 0002394   8.5162 351.5879 15.30172115 38345
STARLINK-32040          
1 60109U 24117U   25051.17938023 -.00003639  00000+0 -11091-3 0  9994
2 60109  53.1626  13.7597 0001203  93.1692 266.9446 15.30168661 38329
STARLINK-32001          
1 60110U 24117V   25051.62073479  .00004229  00000+0  15494-3 0  9996
2 60110  53.1623  11.5348 0001285  96.8787 263.2360 15.30177746 38344
STARLINK-32015          
1 60111U 24117W   25051.61437981 -.00004555  00000+0 -14161-3 0  9992
2 60111  53.1625  11.4958 0001500  71.3103 288.8061 15.30228069 38394
STARLINK-32024          
1 60112U 24117X   25051.16987446 -.00002434  00000+0 -70150-4 0  9994
2 60112  53.1629  13.7014 0001341 101.4870 258.6281 15.30173996 38326
STARLINK-11201 [DTC]    
1 60113U 24118A   25051.89407205  .00002388  00000+0  24567-4 0  9993
2 60113  53.1574 303.6948 0001182  75.2582 284.8567 15.69710557 38919
STARLINK-11198 [DTC]    
1 60114U 24118B   25051.88916899 -.00001291  00000+0 -57955-5 0  9999
2 60114  53.1587 303.6637 0001110 104.2384 255.8757 15.69709800 38900
STARLINK-11112 [DTC]    
1 60115U 24118C   25051.12023141  .00023007  00000+0  19433-3 0  9990
2 60115  53.1569 307.3962 0000683  87.2655 272.8441 15.69697679 37906
STARLINK-11210 [DTC]    
1 60116U 24118D   25051.43367141  .00061325  00000+0  50690-3 0  9991
2 60116  53.1567 305.7968 0001295  70.0398 290.0759 15.69729011 37952
STARLINK-11203 [DTC]    
1 60117U 24118E   25051.87444570 -.00001203  00000+0 -50756-5 0  9998
2 60117  53.1585 303.5674 0000948  70.3702 289.7418 15.69721156 39073
STARLINK-11177 [DTC]    
1 60118U 24118F   25051.86954409 -.00005716  00000+0 -42303-4 0  9996
2 60118  53.1599 303.5311 0001306  89.7541 270.3626 15.69735163 39071
STARLINK-11127 [DTC]    
1 60119U 24118G   25051.41895158 -.00000903  00000+0 -25943-5 0  9998
2 60119  53.1584 305.6944 0001015  97.0236 263.0898 15.69710795 37950
STARLINK-11164 [DTC]    
1 60120U 24118H   25051.85975976 -.00002534  00000+0 -16083-4 0  9991
2 60120  53.1584 303.4673 0001114  89.3543 270.7603 15.69684602 39130
STARLINK-11119 [DTC]    
1 60121U 24118J   25051.90868608 -.00001270  00000+0 -56289-5 0  9990
2 60121  53.1578 303.0539 0000912 108.3055 251.8062 15.69708972 39075
STARLINK-11157 [DTC]    
1 60122U 24118K   25051.40423429  .00000707  00000+0  10689-4 0  9999
2 60122  53.1574 305.5962 0001200  96.6946 263.4208 15.69714261 37952
STARLINK-11162 [DTC]    
1 60123U 24118L   25051.90378066  .00013417  00000+0  11538-3 0  9996
2 60123  53.1561 303.0184 0000862 101.8167 258.2947 15.69718431 38759
STARLINK-11161 [DTC]    
1 60124U 24118M   25051.89897601  .00000712  00000+0  10737-4 0  9991
2 60124  53.1578 303.7236 0001178  69.5052 290.6092 15.69710334 39067
STARLINK-11160 [DTC]    
1 60125U 24118N   25051.40913870 -.00001745  00000+0 -95233-5 0  9990
2 60125  53.1601 305.6275 0002621 162.7885 197.3222 15.69713032 37955
